STARLINK-30884          
1 58372U 23177X   25349.64244665  .00000528  00000+0  54183-4 0  9994
2 58372  43.0029  88.2109 0001145 281.0125  79.0588 15.02540654115571
STARLINK-30852          
1 58373U 23177Y   25349.73665767 -.00011919  00000+0 -86770-3 0  9999
2 58373  43.0036  88.0265 0001246 258.1039 101.9663 15.02582390115585
STARLINK-30911          
1 58374U 23178A   25349.82478794  .00000258  00000+0  20852-4 0  9995
2 58374  53.1619  30.4512 0001465 120.8256 239.2890 15.30192581117040
STARLINK-30894          
1 58375U 23178B   25349.50876451  .00001123  00000+0  50041-4 0  9998
2 58375  53.1612  32.0385 0001260  94.9471 265.1673 15.30193648116932
STARLINK-30910          
1 58376U 23178C   25349.83850944 -.00000219  00000+0  47537-5 0  9997
2 58376  53.1613  30.5426 0001513  95.7977 264.3196 15.30190135117057
STARLINK-30914          
1 58377U 23178D   25349.82690379  .00003494  00000+0  13012-3 0  9997
2 58377  53.1622  30.4550 0001450 117.5506 242.5642 15.30182693117050
STARLINK-30920          
1 58378U 23178E   25349.79163993  .00000784  00000+0  38623-4 0  9996
2 58378  53.1622  18.2044 0001514  80.4384 279.6788 15.30192541117220
STARLINK-30882          
1 58379U 23178F   25349.84167351  .00010049  00000+0  35076-3 0  9998
2 58379  53.1606  30.5606 0001405  84.8406 275.2755 15.30216551117051
STARLINK-30915          
1 58380U 23178G   25349.87357830  .00000708  00000+0  36046-4 0  9996
2 58380  53.1613 300.6525 0001332  95.9002 264.2151 15.30193563118287
STARLINK-30923          
1 58381U 23178H   25349.85116449  .00001376  00000+0  58613-4 0  9990
2 58381  53.1614  30.5741 0002101  90.7167 269.4075 15.30190332116986
STARLINK-30927          
1 58382U 23178J   25349.53832458 -.00000057  00000+0  10190-4 0  9995
2 58382  53.1604  32.2173 0001251  77.3723 282.7417 15.30177369116981
STARLINK-30921          
1 58383U 23178K   25349.84800998  .00001710  00000+0  69876-4 0  9995
2 58383  53.1592  30.5999 0001090  82.1217 277.9907 15.30185259117032
STARLINK-30825          
1 58384U 23178L   25349.83216424  .00002031  00000+0  80710-4 0  9997
2 58384  53.1616  30.4717 0001977  83.4093 276.7133 15.30194124117058
STARLINK-30930          
1 58385U 23178M   25349.82162221  .00004220  00000+0  15450-3 0  9992
2 58385  53.1609  30.4309 0001526 102.6803 257.4368 15.30202715116928
STARLINK-30929          
1 58386U 23178N   25349.81853970  .00000538  00000+0  30314-4 0  9995
2 58386  53.1627  30.9204 0001342  98.9228 261.1925 15.30191314117027
STARLINK-30898          
1 58387U 23178P   25349.54779071  .00000762  00000+0  37855-4 0  9991
2 58387  53.1611  32.1485 0000579  61.8767 298.2293 15.30197403117006
