[{"OBJECT_NAME":"STARLINK-30884","OBJECT_ID":"2023-177X","EPOCH":"2025-12-15T15:25:07.390560","MEAN_MOTION":15.02540654,"ECCENTRICITY":0.00011453,"INCLINATION":43.0029,"RA_OF_ASC_NODE":88.2109,"ARG_OF_PERICENTER":281.0125,"MEAN_ANOMALY":79.0588,"EPHEMERIS_TYPE":0,"CLASSIFICATION_TYPE":"U","NORAD_CAT_ID":58372,"ELEMENT_SET_NO":999,"REV_AT_EPOCH":11557,"BSTAR":5.4182712e-5,"MEAN_MOTION_DOT":5.28e-6,"MEAN_MOTION_DDOT":0},{"OBJECT_NAME":"STARLINK-30852","OBJECT_ID":"2023-177Y","EPOCH":"2025-12-15T17:40:47.222688","MEAN_MOTION":15.0258239,"ECCENTRICITY":0.00012462,"INCLINATION":43.0036,"RA_OF_ASC_NODE":88.0265,"ARG_OF_PERICENTER":258.1039,"MEAN_ANOMALY":101.9663,"EPHEMERIS_TYPE":0,"CLASSIFICATION_TYPE":"U","NORAD_CAT_ID":58373,"ELEMENT_SET_NO":999,"REV_AT_EPOCH":11558,"BSTAR":-0.00086770439,"MEAN_MOTION_DOT":-0.00011919,"MEAN_MOTION_DDOT":0},{"OBJECT_NAME":"STARLINK-30911","OBJECT_ID":"2023-178A","EPOCH":"2025-12-15T19:47:41.678016","MEAN_MOTION":15.30192581,"ECCENTRICITY":0.00014657,"INCLINATION":53.1619,"RA_OF_ASC_NODE":30.4512,"ARG_OF_PERICENTER":120.8256,"MEAN_ANOMALY":239.289,"EPHEMERIS_TYPE":0,"CLASSIFICATION_TYPE":"U","NORAD_CAT_ID":58374,"ELEMENT_SET_NO":999,"REV_AT_EPOCH":11704,"BSTAR":2.0851906e-5,"MEAN_MOTION_DOT":2.58e-6,"MEAN_MOTION_DDOT":0},{"OBJECT_NAME":"STARLINK-30894","OBJECT_ID":"2023-178B","EPOCH":"2025-12-15T12:12:37.253664","MEAN_MOTION":15.30193648,"ECCENTRICITY":0.000126,"INCLINATION":53.1612,"RA_OF_ASC_NODE":32.0385,"ARG_OF_PERICENTER":94.9471,"MEAN_ANOMALY":265.1673,"EPHEMERIS_TYPE":0,"CLASSIFICATION_TYPE":"U","NORAD_CAT_ID":58375,"ELEMENT_SET_NO":999,"REV_AT_EPOCH":11693,"BSTAR":5.0041308e-5,"MEAN_MOTION_DOT":1.123e-5,"MEAN_MOTION_DDOT":0},{"OBJECT_NAME":"STARLINK-30910","OBJECT_ID":"2023-178C","EPOCH":"2025-12-15T20:07:27.215616","MEAN_MOTION":15.30190135,"ECCENTRICITY":0.00015134,"INCLINATION":53.1613,"RA_OF_ASC_NODE":30.5426,"ARG_OF_PERICENTER":95.7977,"MEAN_ANOMALY":264.3196,"EPHEMERIS_TYPE":0,"CLASSIFICATION_TYPE":"U","NORAD_CAT_ID":58376,"ELEMENT_SET_NO":999,"REV_AT_EPOCH":11705,"BSTAR":4.753738e-6,"MEAN_MOTION_DOT":-2.19e-6,"MEAN_MOTION_DDOT":0},{"OBJECT_NAME":"STARLINK-30914","OBJECT_ID":"2023-178D","EPOCH":"2025-12-15T19:50:44.487456","MEAN_MOTION":15.30182693,"ECCENTRICITY":0.00014503,"INCLINATION":53.1622,"RA_OF_ASC_NODE":30.455,"ARG_OF_PERICENTER":117.5506,"MEAN_ANOMALY":242.5642,"EPHEMERIS_TYPE":0,"CLASSIFICATION_TYPE":"U","NORAD_CAT_ID":58377,"ELEMENT_SET_NO":999,"REV_AT_EPOCH":11705,"BSTAR":0.00013011896,"MEAN_MOTION_DOT":3.494e-5,"MEAN_MOTION_DDOT":0},{"OBJECT_NAME":"STARLINK-30920","OBJECT_ID":"2023-178E","EPOCH":"2025-12-15T18:59:57.689952","MEAN_MOTION":15.30192541,"ECCENTRICITY":0.00015144,"INCLINATION":53.1622,"RA_OF_ASC_NODE":18.2044,"ARG_OF_PERICENTER":80.4384,"MEAN_ANOMALY":279.6788,"EPHEMERIS_TYPE":0,"CLASSIFICATION_TYPE":"U","NORAD_CAT_ID":58378,"ELEMENT_SET_NO":999,"REV_AT_EPOCH":11722,"BSTAR":3.862264e-5,"MEAN_MOTION_DOT":7.84e-6,"MEAN_MOTION_DDOT":0},{"OBJECT_NAME":"STARLINK-30882","OBJECT_ID":"2023-178F","EPOCH":"2025-12-15T20:12:00.591264","MEAN_MOTION":15.30216551,"ECCENTRICITY":0.00014051,"INCLINATION":53.1606,"RA_OF_ASC_NODE":30.5606,"ARG_OF_PERICENTER":84.8406,"MEAN_ANOMALY":275.2755,"EPHEMERIS_TYPE":0,"CLASSIFICATION_TYPE":"U","NORAD_CAT_ID":58379,"ELEMENT_SET_NO":999,"REV_AT_EPOCH":11705,"BSTAR":0.00035076222,"MEAN_MOTION_DOT":0.00010049,"MEAN_MOTION_DDOT":0},{"OBJECT_NAME":"STARLINK-30915","OBJECT_ID":"2023-178G","EPOCH":"2025-12-15T20:57:57.165120","MEAN_MOTION":15.30193563,"ECCENTRICITY":0.00013327,"INCLINATION":53.1613,"RA_OF_ASC_NODE":300.6525,"ARG_OF_PERICENTER":95.9002,"MEAN_ANOMALY":264.2151,"EPHEMERIS_TYPE":0,"CLASSIFICATION_TYPE":"U","NORAD_CAT_ID":58380,"ELEMENT_SET_NO":999,"REV_AT_EPOCH":11828,"BSTAR":3.6046053e-5,"MEAN_MOTION_DOT":7.08e-6,"MEAN_MOTION_DDOT":0},{"OBJECT_NAME":"STARLINK-30923","OBJECT_ID":"2023-178H","EPOCH":"2025-12-15T20:25:40.611936","MEAN_MOTION":15.30190332,"ECCENTRICITY":0.00021016,"INCLINATION":53.1614,"RA_OF_ASC_NODE":30.5741,"ARG_OF_PERICENTER":90.7167,"MEAN_ANOMALY":269.4075,"EPHEMERIS_TYPE":0,"CLASSIFICATION_TYPE":"U","NORAD_CAT_ID":58381,"ELEMENT_SET_NO":999,"REV_AT_EPOCH":11698,"BSTAR":5.8613293e-5,"MEAN_MOTION_DOT":1.376e-5,"MEAN_MOTION_DDOT":0},{"OBJECT_NAME":"STARLINK-30927","OBJECT_ID":"2023-178J","EPOCH":"2025-12-15T12:55:11.243712","MEAN_MOTION":15.30177369,"ECCENTRICITY":0.00012513,"INCLINATION":53.1604,"RA_OF_ASC_NODE":32.2173,"ARG_OF_PERICENTER":77.3723,"MEAN_ANOMALY":282.7417,"EPHEMERIS_TYPE":0,"CLASSIFICATION_TYPE":"U","NORAD_CAT_ID":58382,"ELEMENT_SET_NO":999,"REV_AT_EPOCH":11698,"BSTAR":1.0189735e-5,"MEAN_MOTION_DOT":-5.7e-7,"MEAN_MOTION_DDOT":0},{"OBJECT_NAME":"STARLINK-30921","OBJECT_ID":"2023-178K","EPOCH":"2025-12-15T20:21:08.062272","MEAN_MOTION":15.30185259,"ECCENTRICITY":0.00010909,"INCLINATION":53.1592,"RA_OF_ASC_NODE":30.5999,"ARG_OF_PERICENTER":82.1217,"MEAN_ANOMALY":277.9907,"EPHEMERIS_TYPE":0,"CLASSIFICATION_TYPE":"U","NORAD_CAT_ID":58383,"ELEMENT_SET_NO":999,"REV_AT_EPOCH":11703,"BSTAR":6.9876158e-5,"MEAN_MOTION_DOT":1.71e-5,"MEAN_MOTION_DDOT":0},{"OBJECT_NAME":"STARLINK-30825","OBJECT_ID":"2023-178L","EPOCH":"2025-12-15T19:58:18.990336","MEAN_MOTION":15.30194124,"ECCENTRICITY":0.00019772,"INCLINATION":53.1616,"RA_OF_ASC_NODE":30.4717,"ARG_OF_PERICENTER":83.4093,"MEAN_ANOMALY":276.7133,"EPHEMERIS_TYPE":0,"CLASSIFICATION_TYPE":"U","NORAD_CAT_ID":58384,"ELEMENT_SET_NO":999,"REV_AT_EPOCH":11705,"BSTAR":8.0709725e-5,"MEAN_MOTION_DOT":2.031e-5,"MEAN_MOTION_DDOT":0},{"OBJECT_NAME":"STARLINK-30930","OBJECT_ID":"2023-178M","EPOCH":"2025-12-15T19:43:08.158944","MEAN_MOTION":15.30202715,"ECCENTRICITY":0.0001526,"INCLINATION":53.1609,"RA_OF_ASC_NODE":30.4309,"ARG_OF_PERICENTER":102.6803,"MEAN_ANOMALY":257.4368,"EPHEMERIS_TYPE":0,"CLASSIFICATION_TYPE":"U","NORAD_CAT_ID":58385,"ELEMENT_SET_NO":999,"REV_AT_EPOCH":11692,"BSTAR":0.00015450451,"MEAN_MOTION_DOT":4.22e-5,"MEAN_MOTION_DDOT":0},{"OBJECT_NAME":"STARLINK-30929","OBJECT_ID":"2023-178N","EPOCH":"2025-12-15T19:38:41.830080","MEAN_MOTION":15.30191314,"ECCENTRICITY":0.00013426,"INCLINATION":53.1627,"RA_OF_ASC_NODE":30.9204,"ARG_OF_PERICENTER":98.9228,"MEAN_ANOMALY":261.1925,"EPHEMERIS_TYPE":0,"CLASSIFICATION_TYPE":"U","NORAD_CAT_ID":58386,"ELEMENT_SET_NO":999,"REV_AT_EPOCH":11702,"BSTAR":3.0313789e-5,"MEAN_MOTION_DOT":5.38e-6,"MEAN_MOTION_DDOT":0},{"OBJECT_NAME":"STARLINK-30898","OBJECT_ID":"2023-178P","EPOCH":"2025-12-15T13:08:49.117344","MEAN_MOTION":15.30197403,"ECCENTRICITY":5.793e-5,"INCLINATION":53.1611,"RA_OF_ASC_NODE":32.1485,"ARG_OF_PERICENTER":61.8767,"MEAN_ANOMALY":298.2293,"EPHEMERIS_TYPE":0,"CLASSIFICATION_TYPE":"U","NORAD_CAT_ID":58387,"ELEMENT_SET_NO":999,"REV_AT_EPOCH":11700,"BSTAR":3.785544e-5,"MEAN_MOTION_DOT":7.62e-6,"MEAN_MOTION_DDOT":0}]
